{
  "links" : {
    "next" : "https://api.nasa.gov/neo/rest/v1/feed?start_date=2013-03-09&end_date=2013-03-09&detailed=true&api_key=t0TVs3DtDT2H8Oy2Zy8m2eVrNsAVKAexjcZXUckd",
    "prev" : "https://api.nasa.gov/neo/rest/v1/feed?start_date=2013-03-07&end_date=2013-03-07&detailed=true&api_key=t0TVs3DtDT2H8Oy2Zy8m2eVrNsAVKAexjcZXUckd",
    "self" : "https://api.nasa.gov/neo/rest/v1/feed?start_date=2013-03-08&end_date=2013-03-08&detailed=true&api_key=t0TVs3DtDT2H8Oy2Zy8m2eVrNsAVKAexjcZXUckd"
  },
  "element_count" : 6,
  "near_earth_objects" : {
    "2013-03-08" : [ {
      "links" : {
        "self" : "https://api.nasa.gov/neo/rest/v1/neo/3632079?api_key=t0TVs3DtDT2H8Oy2Zy8m2eVrNsAVKAexjcZXUckd"
      },
      "neo_reference_id" : "3632079",
      "name" : "(2013 EF68)",
      "nasa_jpl_url" : "http://ssd.jpl.nasa.gov/sbdb.cgi?sstr=3632079",
      "absolute_magnitude_h" : 25.8,
      "estimated_diameter" : {
        "kilometers" : {
          "estimated_diameter_min" : 0.0183888672,
          "estimated_diameter_max" : 0.0411187571
        },
        "meters" : {
          "estimated_diameter_min" : 18.388867207,
          "estimated_diameter_max" : 41.1187571041
        },
        "miles" : {
          "estimated_diameter_min" : 0.0114263088,
          "estimated_diameter_max" : 0.0255500032
        },
        "feet" : {
          "estimated_diameter_min" : 60.3309310875,
          "estimated_diameter_max" : 134.9040630575
        }
      },
      "is_potentially_hazardous_asteroid" : false,
      "close_approach_data" : [ {
        "close_approach_date" : "2013-03-08",
        "epoch_date_close_approach" : 1362729600000,
        "relative_velocity" : {
          "kilometers_per_second" : "16.871650636",
          "kilometers_per_hour" : "60737.9422896533",
          "miles_per_hour" : "37740.1953077015"
        },
        "miss_distance" : {
          "astronomical" : "0.0157414744",
          "lunar" : "6.1234335899",
          "kilometers" : "2354891.25",
          "miles" : "1463261.5"
        },
        "orbiting_body" : "Earth"
      } ],
      "orbital_data" : {
        "orbit_id" : "5",
        "orbit_determination_date" : "2017-04-06 08:46:29",
        "orbit_uncertainty" : "9",
        "minimum_orbit_intersection" : ".0157357",
        "jupiter_tisserand_invariant" : "3.562",
        "epoch_osculation" : "2456365.5",
        "eccentricity" : ".6396831207172898",
        "semi_major_axis" : "1.988806003457583",
        "inclination" : "5.561416248497504",
        "ascending_node_longitude" : "177.1659051274945",
        "orbital_period" : "1024.44125681936",
        "perihelion_distance" : ".7166003726645553",
        "perihelion_argument" : "277.108283765403",
        "aphelion_distance" : "3.261011634250611",
        "perihelion_time" : "2456315.210753021866",
        "mean_anomaly" : "17.67219817789957",
        "mean_motion" : ".3514110717462826",
        "equinox" : "J2000"
      }
    }, {
      "links" : {
        "self" : "https://api.nasa.gov/neo/rest/v1/neo/2465633?api_key=t0TVs3DtDT2H8Oy2Zy8m2eVrNsAVKAexjcZXUckd"
      },
      "neo_reference_id" : "2465633",
      "name" : "465633 (2009 JR5)",
      "nasa_jpl_url" : "http://ssd.jpl.nasa.gov/sbdb.cgi?sstr=2465633",
      "absolute_magnitude_h" : 20.3,
      "estimated_diameter" : {
        "kilometers" : {
          "estimated_diameter_min" : 0.2315021222,
          "estimated_diameter_max" : 0.5176544822
        },
        "meters" : {
          "estimated_diameter_min" : 231.5021222103,
          "estimated_diameter_max" : 517.6544821978
        },
        "miles" : {
          "estimated_diameter_min" : 0.1438487052,
          "estimated_diameter_max" : 0.3216554833
        },
        "feet" : {
          "estimated_diameter_min" : 759.5214226325,
          "estimated_diameter_max" : 1698.3415313737
        }
      },
      "is_potentially_hazardous_asteroid" : true,
      "close_approach_data" : [ {
        "close_approach_date" : "2013-03-08",
        "epoch_date_close_approach" : 1362729600000,
        "relative_velocity" : {
          "kilometers_per_second" : "18.4290273266",
          "kilometers_per_hour" : "66344.4983757957",
          "miles_per_hour" : "41223.8912268937"
        },
        "miss_distance" : {
          "astronomical" : "0.304492085",
          "lunar" : "118.4474182129",
          "kilometers" : "45551368",
          "miles" : "28304308"
        },
        "orbiting_body" : "Earth"
      } ],
      "orbital_data" : {
        "orbit_id" : "32",
        "orbit_determination_date" : "2017-04-06 09:19:31",
        "orbit_uncertainty" : "0",
        "minimum_orbit_intersection" : ".0239052",
        "jupiter_tisserand_invariant" : "5.071",
        "epoch_osculation" : "2458000.5",
        "eccentricity" : ".3514103935691205",
        "semi_major_axis" : "1.252508636308015",
        "inclination" : "3.948472010266107",
        "ascending_node_longitude" : "128.2314003402351",
        "orbital_period" : "511.9994807373566",
        "perihelion_distance" : ".8123640834742931",
        "perihelion_argument" : "309.8704472076857",
        "aphelion_distance" : "1.692653189141737",
        "perihelion_time" : "2457842.628353229952",
        "mean_anomaly" : "111.0036142133737",
        "mean_motion" : ".7031257130994462",
        "equinox" : "J2000"
      }
    }, {
      "links" : {
        "self" : "https://api.nasa.gov/neo/rest/v1/neo/3449135?api_key=t0TVs3DtDT2H8Oy2Zy8m2eVrNsAVKAexjcZXUckd"
      },
      "neo_reference_id" : "3449135",
      "name" : "(2009 EM1)",
      "nasa_jpl_url" : "http://ssd.jpl.nasa.gov/sbdb.cgi?sstr=3449135",
      "absolute_magnitude_h" : 23.0,
      "estimated_diameter" : {
        "kilometers" : {
          "estimated_diameter_min" : 0.0667659413,
          "estimated_diameter_max" : 0.1492931834
        },
        "meters" : {
          "estimated_diameter_min" : 66.7659413495,
          "estimated_diameter_max" : 149.2931834393
        },
        "miles" : {
          "estimated_diameter_min" : 0.0414864197,
          "estimated_diameter_max" : 0.0927664547
        },
        "feet" : {
          "estimated_diameter_min" : 219.0483710172,
          "estimated_diameter_max" : 489.807047955
        }
      },
      "is_potentially_hazardous_asteroid" : false,
      "close_approach_data" : [ {
        "close_approach_date" : "2013-03-08",
        "epoch_date_close_approach" : 1362729600000,
        "relative_velocity" : {
          "kilometers_per_second" : "11.7540223523",
          "kilometers_per_hour" : "42314.4804682454",
          "miles_per_hour" : "26292.5725998384"
        },
        "miss_distance" : {
          "astronomical" : "0.1240143969",
          "lunar" : "48.2416000366",
          "kilometers" : "18552290",
          "miles" : "11527859"
        },
        "orbiting_body" : "Earth"
      } ],
      "orbital_data" : {
        "orbit_id" : "20",
        "orbit_determination_date" : "2017-04-06 09:01:04",
        "orbit_uncertainty" : "0",
        "minimum_orbit_intersection" : ".118247",
        "jupiter_tisserand_invariant" : "3.162",
        "epoch_osculation" : "2458000.5",
        "eccentricity" : ".5598005429501828",
        "semi_major_axis" : "2.518202964023344",
        "inclination" : "18.12977252152658",
        "ascending_node_longitude" : "347.740346226834",
        "orbital_period" : "1459.602246203835",
        "perihelion_distance" : "1.108511577504317",
        "perihelion_argument" : "185.8319671360557",
        "aphelion_distance" : "3.927894350542372",
        "perihelion_time" : "2457824.682287207645",
        "mean_anomaly" : "43.36412661042775",
        "mean_motion" : ".2466425363048706",
        "equinox" : "J2000"
      }
    } ]
  }
}